{
    "links": {
        "self": "http://www.neowsapp.com/rest/v1/neo/54016738?api_key=iIulBulltgU6a56xZRHN4H3l9WmuAYTsLGpBGhQ2"
    },
    "id": "54016738",
    "neo_reference_id": "54016738",
    "name": "(2020 HV5)",
    "designation": "2020 HV5",
    "nasa_jpl_url": "http://ssd.jpl.nasa.gov/sbdb.cgi?sstr=54016738",
    "absolute_magnitude_h": 25.773,
    "estimated_diameter": {
        "kilometers": {
            "estimated_diameter_min": 0.018618941,
            "estimated_diameter_max": 0.0416332178
        },
        "meters": {
            "estimated_diameter_min": 18.6189410373,
            "estimated_diameter_max": 41.6332178285
        },
        "miles": {
            "estimated_diameter_min": 0.01156927,
            "estimated_diameter_max": 0.0258696742
        },
        "feet": {
            "estimated_diameter_min": 61.0857665129,
            "estimated_diameter_max": 136.5919263806
        }
    },
    "is_potentially_hazardous_asteroid": false,
    "close_approach_data": [
        {
            "close_approach_date": "2020-04-30",
            "close_approach_date_full": "2020-Apr-30 08:47",
            "epoch_date_close_approach": 1588236420000,
            "relative_velocity": {
                "kilometers_per_second": "6.3731408353",
                "kilometers_per_hour": "22943.3070069966",
                "miles_per_hour": "14256.0787344308"
            },
            "miss_distance": {
                "astronomical": "0.1087438231",
                "lunar": "42.3013471859",
                "kilometers": "16267844.311416797",
                "miles": "10108369.7237819186"
            },
            "orbiting_body": "Earth"
        }
    ],
    "orbital_data": {
        "orbit_id": "3",
        "orbit_determination_date": "2020-04-28 07:11:51",
        "first_observation_date": "2020-04-21",
        "last_observation_date": "2020-04-27",
        "data_arc_in_days": 6,
        "observations_used": 20,
        "orbit_uncertainty": "8",
        "minimum_orbit_intersection": ".108613",
        "jupiter_tisserand_invariant": "2.968",
        "epoch_osculation": "2458963.5",
        "eccentricity": ".6159124040018147",
        "semi_major_axis": "2.904015833163502",
        "inclination": "1.939943754403785",
        "ascending_node_longitude": "26.49830735399348",
        "orbital_period": "1807.577374795545",
        "perihelion_distance": "1.115396460100437",
        "perihelion_argument": "191.2428807134602",
        "aphelion_distance": "4.692635206226568",
        "perihelion_time": "2458967.856338217463",
        "mean_anomaly": "359.1323847155013",
        "mean_motion": ".1991615988448182",
        "equinox": "J2000",
        "orbit_class": {
            "orbit_class_type": "AMO",
            "orbit_class_description": "Near-Earth asteroid orbits similar to that of 1221 Amor",
            "orbit_class_range": "1.017 AU < q (perihelion) < 1.3 AU"
        }
    },
    "is_sentry_object": false
}